ONEWEB-0365             
1 49291U 21090N   23059.38100938  .00000018  00000+0  11941-4 0  9996
2 49291  87.9336 184.5096 0001519 111.2540 248.8755 13.19725642 67514
ONEWEB-0365             
1 49291U 21090N   23059.38100938  .00000018  00000+0  11941-4 0  9996
2 49291  87.9336 184.5096 0001519 111.2540 248.8755 13.19725642 68807
ONEWEB-0365             
1 49291U 21090N   23059.83591016  .00000040  00000+0  67902-4 0  9990
2 49291  87.9336 184.4198 0001536 111.4565 248.6731 13.19725712 67570
ONEWEB-0365             
1 49291U 21090N   23060.89734550  .00000039  00000+0  64253-4 0  9994
2 49291  87.9334 184.2101 0001569 111.7610 248.3689 13.19725191 67716
ONEWEB-0365             
1 49291U 21090N   23060.89734550  .00000039  00000+0  64253-4 0  9994
2 49291  87.9334 184.2101 0001569 111.7610 248.3689 13.19725191 69000
ONEWEB-0365             
1 49291U 21090N   23061.80714610  .00000005  00000+0 -19737-4 0  9992
2 49291  87.9330 184.0298 0001574 110.9971 249.1330 13.19725842 67832
ONEWEB-0365             
1 49291U 21090N   23062.33786245  .00000053  00000+0  99295-4 0  9993
2 49291  87.9329 183.9249 0001581 111.2704 248.8598 13.19726678 67908
ONEWEB-0365             
1 49291U 21090N   23062.33786245  .00000053  00000+0  99295-4 0  9993
2 49291  87.9329 183.9249 0001581 111.2704 248.8598 13.19726678 69191
ONEWEB-0365             
1 49291U 21090N   23062.86858024  .00000003  00000+0 -24980-4 0  9991
2 49291  87.9331 183.8205 0001521 109.9277 250.2019 13.19725962 67972
